TDRS 11                 
1 39070U 13004A   26117.19007589  .00000071  00000+0  00000+0 0  9999
2 39070   3.4466  30.3637 0005410   1.3684  77.7005  1.00264713 46187
TDRS 12                 
1 39504U 14004A   26117.24032406 -.00000279  00000+0  00000+0 0  9995
2 39504   3.9291  18.2362 0001872 246.3300 356.2723  1.00269448 43767
GPM-CORE                
1 39574U 14009C   26117.26628795  .00008287  00000+0  18158-3 0  9994
2 39574  64.9708 118.7684 0012198 260.6469  99.3293 15.44672095689947
MMS 1                   
1 40482U 15011A   26117.33334491 -.00000526  00000+0  00000+0 0  9995
2 40482  71.4130 349.4858 8363047 166.3268 150.9163  0.28345670  1359
MMS 2                   
1 40483U 15011B   26117.33334491 -.00000526  00000+0  00000+0 0  9996
2 40483  71.4131 349.4880 8363804 166.3327 150.9020  0.28345673  1358
MMS 3                   
1 40484U 15011C   26117.33334491 -.00000526  00000+0  00000+0 0  9997
2 40484  71.4166 349.4925 8363227 166.3260 150.9105  0.28346070  1358
MMS 4                   
1 40485U 15011D   26117.33334491 -.00000526  00000+0  00000+0 0  9998
2 40485  71.4130 349.4881 8362590 166.3346 150.8913  0.28345623  1357
TDRS 13                 
1 42915U 17047A   26116.82475192 -.00000110  00000+0  00000+0 0  9995
2 42915   3.4407   1.4594 0012926  98.4221  40.3722  1.00271933 31839
NOAA 20 (JPSS-1)        
1 43013U 17073A   26117.25150007  .00000057  00000+0  48166-4 0  9996
2 43013  98.7747  57.1734 0002092  71.4766 288.6637 14.19547810437246
